Region,City,Postcode
Wollongong,Austinmer,2515
Wollongong,Avondale,2530
Wollongong,Balgownie,2519
Wollongong,Bellambi,2518
Wollongong,Berkeley,2506
Wollongong,Brownsville,2530
Wollongong,Bulli,2516
Wollongong,Cleveland,2530
Wollongong,Clifton,2515
Wollongong,Coalcliff,2508
Wollongong,Coledale,2515
Wollongong,Coniston,2500
Wollongong,Cordeaux,2526
Wollongong,Cordeaux Heights,2526
Wollongong,Corrimal,2518
Wollongong,Corrimal East,2518
Wollongong,Cringila,2502
Wollongong,Dapto,2530
Wollongong,Darkes Forest,2508
Wollongong,Dombarton,2530
Wollongong,East Corrimal,2518
Wollongong,Fairy Meadow,2519
Wollongong,Farmborough Heights,2526
Wollongong,Fernhill,2519
Wollongong,Figtree,2525
Wollongong,Gwynneville,2500
Wollongong,Haywards Bay,2530
Wollongong,Helensburgh,2508
Wollongong,Horsley,2530
Wollongong,Huntley,2530
Wollongong,Kanahooka,2530
Wollongong,Keiraville,2500
Wollongong,Kembla Grange,2526
Wollongong,Kembla Heights,2526
Wollongong,Koonawarra,2530
Wollongong,Lake Heights,2502
Wollongong,Lilyvale,2508
Wollongong,Maddens Plains,2508
Wollongong,Mangerton,2500
Wollongong,Marshall Mount,2530
Wollongong,Mount Keira,2500
Wollongong,Mount Kembla,2526
Wollongong,Mount Ousley,2519
Wollongong,Mount Pleasant,2519
Wollongong,Mount Saint Thomas,2500
Wollongong,North Wollongong,2500
Wollongong,Otford,2508
Wollongong,Penrose,2530
Wollongong,Port Kembla,2505
Wollongong,Primbee,2502
Wollongong,Russell Vale,2517
Wollongong,Scarborough,2515
Wollongong,Spring Hill,2500
Wollongong,Stanwell Park,2508
Wollongong,Stanwell Tops,2508
Wollongong,Tarrawanna,2518
Wollongong,Thirroul,2515
Wollongong,Towradgi,2518
Wollongong,Unanderra,2526
Wollongong,University of Wollongong,2522
Wollongong,Warrawong,2502
Wollongong,West Wollongong,2500
Wollongong,Windang,2528
Wollongong,Wollongong,2500
Wollongong,Wollongong West,2500
Wollongong,Wombarra,2515
Wollongong,Wongawilli,2530
Wollongong,Woonona,2517
Wollongong,Woonona East,2517
Wollongong,Woronora Dam,2508
Wollongong,Yallah,2530